EMISAT                  
1 44078U 19018A   26132.58947811  .00000296  00000+0  10000-3 0  9999
2 44078  98.4667 191.5802 0017877 328.7118  31.3007 14.43670679374927
JILIN-1 GAOFEN 3A       
1 44312U 19032C   26132.55315310  .00006281  00000+0  21003-3 0  9991
2 44312  44.9752 192.9273 0003115  96.9051 263.2188 15.31852489382379
PROX-1                  
1 44339U 19036A   26132.29923023  .00008067  00000+0  79244-3 0  9995
2 44339  23.9967 353.8105 0006512 338.9691  21.0540 14.89751538368111
NPSAT1                  
1 44340U 19036B   26132.17928409  .00003392  00000+0  46519-3 0  9992
2 44340  23.9980  92.2059 0008084 162.3895 197.6882 14.74239016367171
FORMOSAT 7-3            
1 44343U 19036E   26132.49253262  .00003023  00000+0  16275-3 0  9995
2 44343  23.9990  64.1548 0000626 191.8909 168.1580 15.09524500377840
FORMOSAT 7-1            
1 44349U 19036L   26132.43920618  .00001884  00000+0  13638-3 0  9994
2 44349  23.9976 273.3677 0001032 105.8728 254.1886 14.96356022379296
FORMOSAT 7-4            
1 44350U 19036M   26132.26151148  .00001923  00000+0  13979-3 0  9993
2 44350  23.9993 336.6682 0001232 121.6700 238.3921 14.96348919378686
FORMOSAT 7-2            
1 44351U 19036N   26132.41723124  .00001821  00000+0  13103-3 0  9996
2 44351  23.9988  29.9318 0000777 124.6191 235.4383 14.96346017378226
FORMOSAT 7-6            
1 44353U 19036Q   26132.55054048  .00001683  00000+0  11907-3 0  9991
2 44353  23.9964 209.8533 0001381  55.8795 304.1837 14.96358593376472
FORMOSAT 7-5            
1 44358U 19036V   26132.12778222  .00001598  00000+0  11174-3 0  9997
2 44358  23.9971 151.4514 0000708 110.5790 249.4787 14.96355922376942
METEOR-M2 2             
1 44387U 19038A   26132.62973705 -.00000026  00000+0  84773-5 0  9992
2 44387  98.9138 119.3935 0002250 102.2287 257.9143 14.24355799356237
GLOBAL-4                
1 44499U 19054E   26131.95832607  .00032320  00000+0  37907-3 0  9990
2 44499  45.0057  84.8750 0003631  96.0203 264.1107 15.60966967374693
ZY-1 02D                
1 44528U 19059A   26132.65935181  .00000076  00000+0  41073-4 0  9990
2 44528  98.3207 195.3983 0000776 161.2392 198.8823 14.35448742349249
TAURUS-1 (JINNIUZUO 1)  
1 44530U 19059C   26132.62115565  .00002930  00000+0  47866-3 0  9992
2 44530  98.6391 295.2602 0009432  69.3486 290.8730 14.71702574353417
ZHUHAI-1 03B            
1 44536U 19060C   26132.68125053  .00019508  00000+0  32385-3 0  9998
2 44536  97.5486 288.5975 0009877  90.8774 269.3610 15.52098361370819
ZHUHAI-1 03C            
1 44537U 19060D   26132.59443767  .00248661  25985-4  66483-3 0  9998
2 44537  97.5481 301.0310 0004647 316.3291  43.7616 15.94482492371571
ZHUHAI-1 03D            
1 44538U 19060E   26132.62184542  .00020209  00000+0  39131-3 0  9998
2 44538  97.5346 280.9696 0008318  78.2268 281.9914 15.47723787370570
ZHUHAI-1 03E            
1 44539U 19060F   26132.64629589  .00011061  00000+0  28019-3 0  9995
2 44539  97.5564 281.4057 0006960 142.9692 217.2035 15.39884423370292
GAOFEN-7                
1 44703U 19072A   26132.61771243  .00002521  00000+0  11523-3 0  9996
2 44703  97.2450 195.4173 0017301 155.6221 204.5837 15.21318490362230
JILIN-1 GAOFEN 2A       
1 44777U 19075A   26132.56471988  .00009082  00000+0  24248-3 0  9994
2 44777  97.4963 215.5511 0006213 197.2223 162.8812 15.38328214359403
NINGXIA-1 1             
1 44779U 19076A   26132.62383692 -.00000053  00000+0  49945-4 0  9990
2 44779  45.0071 338.7775 0011288 346.6639  13.3896 14.02035247332867
NINGXIA-1 5             
1 44783U 19076E   26132.63834564  .00000161  00000+0  18907-3 0  9997
2 44783  45.0073 338.0684 0011314 337.0093  23.0233 14.02084136332789
KL-ALPHA A              
1 44785U 19077A   26132.62809575  .00000099  00000+0  12341-3 0  9999
2 44785  88.9255 226.4497 0010215 202.3016 157.7695 13.56039101320918
CARTOSAT-3              
1 44804U 19081A   26132.65672993  .00002056  00000+0  10083-3 0  9997
2 44804  97.4325 195.0898 0011081 276.4851  83.5121 15.19195409358073
JILIN-1 GAOFEN 2B       
1 44836U 19086A   26132.60977609  .00004198  00000+0  19585-3 0  9999
2 44836  97.4893 204.8332 0015737  85.9556 274.3478 15.20295028355080
TIANQIN 1 (CAS-6)       
1 44879U 19093A   26132.62383267  .00001280  00000+0  12149-3 0  9995
2 44879  97.7792 216.7271 0011415 166.2020 193.9515 14.95253384346730
ETRSS-1                 
1 44880U 19093B   26132.57365419  .00001989  00000+0  18390-3 0  9990
2 44880  97.7804 217.1052 0011801 166.3296 193.8247 14.95656984346737
