OBJECT_NAME,OBJECT_ID,EPOCH,MEAN_MOTION,ECCENTRICITY,INCLINATION,RA_OF_ASC_NODE,ARG_OF_PERICENTER,MEAN_ANOMALY,EPHEMERIS_TYPE,CLASSIFICATION_TYPE,NORAD_CAT_ID,ELEMENT_SET_NO,REV_AT_EPOCH,BSTAR,MEAN_MOTION_DOT,MEAN_MOTION_DDOT
EMISAT,2019-018A,2026-05-12T14:08:50.908704,14.43670679,.0017877,98.4667,191.5802,328.7118,31.3007,0,U,44078,999,37492,.10000041E-3,.296E-5,0
JILIN-1 GAOFEN 3A,2019-032C,2026-05-12T13:16:32.427840,15.31852489,.00031155,44.9752,192.9273,96.9051,263.2188,0,U,44312,999,38237,.21002605E-3,.6281E-4,0
PROX-1,2019-036A,2026-05-12T07:10:53.491872,14.89751538,.00065126,23.9967,353.8105,338.9691,21.0540,0,U,44339,999,36811,.79243638E-3,.8067E-4,0
NPSAT1,2019-036B,2026-05-12T04:18:10.145376,14.74239016,.00080847,23.9980,92.2059,162.3895,197.6882,0,U,44340,999,36717,.46519261E-3,.3392E-4,0
FORMOSAT 7-3,2019-036E,2026-05-12T11:49:14.818368,15.09524500,.00006266,23.9990,64.1548,191.8909,168.1580,0,U,44343,999,37784,.16274884E-3,.3023E-4,0
FORMOSAT 7-1,2019-036L,2026-05-12T10:32:27.413952,14.96356022,.00010322,23.9976,273.3677,105.8728,254.1886,0,U,44349,999,37929,.13638097E-3,.1884E-4,0
FORMOSAT 7-4,2019-036M,2026-05-12T06:16:34.591872,14.96348919,.0001232,23.9993,336.6682,121.6700,238.3921,0,U,44350,999,37868,.13978842E-3,.1923E-4,0
FORMOSAT 7-2,2019-036N,2026-05-12T10:00:48.779136,14.96346017,.0000777,23.9988,29.9318,124.6191,235.4383,0,U,44351,999,37822,.13102949E-3,.1821E-4,0
FORMOSAT 7-6,2019-036Q,2026-05-12T13:12:46.697472,14.96358593,.00013811,23.9964,209.8533,55.8795,304.1837,0,U,44353,999,37647,.119068E-3,.1683E-4,0
FORMOSAT 7-5,2019-036V,2026-05-12T03:04:00.383808,14.96355922,.00007085,23.9971,151.4514,110.5790,249.4787,0,U,44358,999,37694,.11173933E-3,.1598E-4,0
METEOR-M2 2,2019-038A,2026-05-12T15:06:49.281120,14.24355799,.00022504,98.9138,119.3935,102.2287,257.9143,0,U,44387,999,35623,.84773E-5,-.26E-6,0
GLOBAL-4,2019-054E,2026-05-11T22:59:59.372448,15.60966967,.00036311,45.0057,84.8750,96.0203,264.1107,0,U,44499,999,37469,.37907425E-3,.3232E-3,0
ZY-1 02D,2019-059A,2026-05-12T15:49:27.996384,14.35448742,.00007762,98.3207,195.3983,161.2392,198.8823,0,U,44528,999,34924,.41072609E-4,.76E-6,0
TAURUS-1 (JINNIUZUO 1),2019-059C,2026-05-12T14:54:27.848160,14.71702574,.00094322,98.6391,295.2602,69.3486,290.8730,0,U,44530,999,35341,.47865636E-3,.293E-4,0
ZHUHAI-1 03B,2019-060C,2026-05-12T16:21:00.045792,15.52098361,.00098778,97.5486,288.5975,90.8774,269.3610,0,U,44536,999,37081,.32385454E-3,.19508E-3,0
ZHUHAI-1 03C,2019-060D,2026-05-12T14:15:59.414688,15.94482492,.00046476,97.5481,301.0310,316.3291,43.7616,0,U,44537,999,37157,.66482558E-3,.248661E-2,.25985001E-4
ZHUHAI-1 03D,2019-060E,2026-05-12T14:55:27.444288,15.47723787,.00083185,97.5346,280.9696,78.2268,281.9914,0,U,44538,999,37057,.39130565E-3,.20209E-3,0
ZHUHAI-1 03E,2019-060F,2026-05-12T15:30:39.964896,15.39884423,.00069609,97.5564,281.4057,142.9692,217.2035,0,U,44539,999,37029,.28018806E-3,.11061E-3,0
GAOFEN-7,2019-072A,2026-05-12T14:49:30.353952,15.21318490,.00173014,97.2450,195.4173,155.6221,204.5837,0,U,44703,999,36223,.11523306E-3,.2521E-4,0
JILIN-1 GAOFEN 2A,2019-075A,2026-05-12T13:33:11.797632,15.38328214,.00062138,97.4963,215.5511,197.2223,162.8812,0,U,44777,999,35940,.24247676E-3,.9082E-4,0
NINGXIA-1 1,2019-076A,2026-05-12T14:58:19.509888,14.02035247,.00112881,45.0071,338.7775,346.6639,13.3896,0,U,44779,999,33286,.4994484E-4,-.53E-6,0
NINGXIA-1 5,2019-076E,2026-05-12T15:19:13.063296,14.02084136,.0011314,45.0073,338.0684,337.0093,23.0233,0,U,44783,999,33278,.18906639E-3,.161E-5,0
KL-ALPHA A,2019-077A,2026-05-12T15:04:27.472800,13.56039101,.0010215,88.9255,226.4497,202.3016,157.7695,0,U,44785,999,32091,.12340765E-3,.99E-6,0
CARTOSAT-3,2019-081A,2026-05-12T15:45:41.465952,15.19195409,.00110819,97.4325,195.0898,276.4851,83.5121,0,U,44804,999,35807,.10082769E-3,.2056E-4,0
JILIN-1 GAOFEN 2B,2019-086A,2026-05-12T14:38:04.654176,15.20295028,.00157376,97.4893,204.8332,85.9556,274.3478,0,U,44836,999,35508,.19584868E-3,.4198E-4,0
TIANQIN 1 (CAS-6),2019-093A,2026-05-12T14:58:19.142688,14.95253384,.00114152,97.7792,216.7271,166.2020,193.9515,0,U,44879,999,34673,.12149264E-3,.128E-4,0
ETRSS-1,2019-093B,2026-05-12T13:46:03.722016,14.95656984,.0011801,97.7804,217.1052,166.3296,193.8247,0,U,44880,999,34673,.18389852E-3,.1989E-4,0
